STARLINK-35547          
1 66119U 25237F   26185.38179219  .00025876  00000+0  77416-3 0  9999
2 66119  53.1572 217.1033 0001035  97.3088 262.8032 15.34407346 40485
STARLINK-35553          
1 66120U 25237G   26185.78514143  .00054168  00000+0  16008-2 0  9999
2 66120  53.1579 214.6483 0000289 177.6926 182.4078 15.34439718 40551
STARLINK-35631          
1 66121U 25237H   26185.51143449  .00039277  00000+0  13300-2 0  9994
2 66121  53.1572 217.1986 0000470  72.4412 287.6640 15.30230559 40499
STARLINK-35653          
1 66122U 25237J   26185.49880381  .00037253  00000+0  12626-2 0  9997
2 66122  53.1577 217.1209 0000903  80.1909 279.9194 15.30226501 40491
STARLINK-35628          
1 66123U 25237K   26185.81039398  .00050178  00000+0  14848-2 0  9997
2 66123  53.1574 214.7998 0002239  86.5314 273.5944 15.34432405 40557
STARLINK-35645          
1 66124U 25237L   26185.80616841  .00051258  00000+0  15154-2 0  9992
2 66124  53.1585 214.7731 0000642 254.4185 105.6747 15.34451028 40551
STARLINK-35649          
1 66125U 25237M   26185.80197470  .00034708  00000+0  10329-2 0  9995
2 66125  53.1591 214.7454 0001822  90.6128 269.5084 15.34420555 40554
STARLINK-35658          
1 66126U 25237N   26185.78935148  .00053294  00000+0  15755-2 0  9994
2 66126  53.1577 214.6697 0001473  89.2862 270.8310 15.34436209 40547
STARLINK-35629          
1 66127U 25237P   26185.78011282  .00048158  00000+0  16268-2 0  9992
2 66127  53.1564 216.0284 0001724  94.3138 265.8060 15.30216430 40537
STARLINK-35612          
1 66128U 25237Q   26185.51039224  .00048390  00000+0  16338-2 0  9996
2 66128  53.1576 217.1941 0000746  67.0586 293.0493 15.30230926 40494
STARLINK-35632          
1 66129U 25237R   26185.37343180  .00025186  00000+0  85923-3 0  9995
2 66129  53.1575 217.7596 0000875  97.8645 262.2455 15.30213644 40478
STARLINK-35630          
1 66131U 25237T   26185.13589040  .00022120  00000+0  66395-3 0  9996
2 66131  53.1579 217.7035 0000896  35.7926 324.3137 15.34396789 40450
STARLINK-34412          
1 66132U 25237U   26185.81249166  .00053656  00000+0  15857-2 0  9998
2 66132  53.1590 214.8129 0001570  91.3653 268.7530 15.34442480 40460
STARLINK-35520          
1 66133U 25237V   26185.79139278  .00055347  00000+0  16293-2 0  9992
2 66133  53.1587 214.6829 0002963 270.1596  89.9067 15.34549541 40556
STARLINK-35525          
1 66134U 25237W   26185.80828259  .00052497  00000+0  15519-2 0  9992
2 66134  53.1568 214.7871 0001459  91.1545 268.9625 15.34441942 40553
STARLINK-34852          
1 66135U 25237X   26185.50512738  .00034922  00000+0  11850-2 0  9999
2 66135  53.1571 217.1556 0002322  70.5750 289.5502 15.30216961 40453
STARLINK-35592          
1 66136U 25237Y   26185.79776803  .00034782  00000+0  10356-2 0  9990
2 66136  53.1575 214.7192 0001761  88.2488 271.8717 15.34404137 40558
STARLINK-35576          
1 66137U 25237Z   26185.79566224  .00069194  00000+0  20369-2 0  9995
2 66137  53.1582 214.7052 0001290  79.1114 281.0034 15.34451929 40550
STARLINK-35623          
1 66138U 25237AA  26185.77798158  .00035455  00000+0  12022-2 0  9997
2 66138  53.1566 216.0124 0001110  98.2908 261.8219 15.30234478 40535
STARLINK-35549          
1 66139U 25237AB  26185.77682334  .00059508  00000+0  17562-2 0  9995
2 66139  53.1589 215.2978 0001568 102.4493 257.6685 15.34439484 40542
STARLINK-35625          
1 66140U 25237AC  26185.79986607  .00040252  00000+0  11948-2 0  9997
2 66140  53.1595 214.7318 0000619  87.9399 272.1674 15.34432123 40555
STARLINK-35603          
1 66141U 25237AD  26185.81459189  .00048259  00000+0  14287-2 0  9995
2 66141  53.1592 214.8217 0000455  85.6788 274.4267 15.34434941 40550
TJS-20                  
1 66142U 25238A   26185.89831134  .00000039  00000+0  00000+0 0  9998
2 66142   5.4317 299.4739 0004662 173.3873 195.8190  1.00272566  2514
STARLINK-35318          
1 66146U 25240A   26185.85677320  .00049785  00000+0  14740-2 0  9996
2 66146  53.1581 236.7207 0001491  82.1556 277.9616 15.34417660 40006
STARLINK-33948          
1 66147U 25240B   26185.56314250  .00076802  00000+0  22568-2 0  9992
2 66147  53.1587 239.8562 0001532  73.2699 286.8471 15.34459270 39937
STARLINK-35081          
1 66148U 25240C   26185.85258091  .00061405  00000+0  18120-2 0  9997
2 66148  53.1570 236.6831 0000989 106.5215 253.5897 15.34429795 39957
STARLINK-35601          
1 66149U 25240D   26185.91670139  .00063902  00000+0  18897-2 0  9991
2 66149  53.1602 238.1805 0000965 116.4788  49.3360 15.34343948  5911
STARLINK-35605          
1 66150U 25240E   26185.15760128  .00033636  00000+0  10017-2 0  9994
2 66150  53.1591 241.5887 0001712  91.8754 268.2445 15.34415128 39821
STARLINK-35540          
1 66151U 25240F   26185.84204131  .00039838  00000+0  11827-2 0  9998
2 66151  53.1569 236.6231 0001603  86.8100 273.3086 15.34432703 39953
