OBJECT_NAME,OBJECT_ID,EPOCH,MEAN_MOTION,ECCENTRICITY,INCLINATION,RA_OF_ASC_NODE,ARG_OF_PERICENTER,MEAN_ANOMALY,EPHEMERIS_TYPE,CLASSIFICATION_TYPE,NORAD_CAT_ID,ELEMENT_SET_NO,REV_AT_EPOCH,BSTAR,MEAN_MOTION_DOT,MEAN_MOTION_DDOT
STARLINK-35547,2025-237F,2026-07-04T09:09:46.845216,15.34407346,.00010353,53.1572,217.1033,97.3088,262.8032,0,U,66119,999,4048,.77416229E-3,.25876E-3,0
STARLINK-35553,2025-237G,2026-07-04T18:50:36.219552,15.34439718,.00002891,53.1579,214.6483,177.6926,182.4078,0,U,66120,999,4055,.1600754E-2,.54168E-3,0
STARLINK-35631,2025-237H,2026-07-04T12:16:27.939936,15.30230559,.00004704,53.1572,217.1986,72.4412,287.6640,0,U,66121,999,4049,.13299919E-2,.39277E-3,0
STARLINK-35653,2025-237J,2026-07-04T11:58:16.649184,15.30226501,.00009032,53.1577,217.1209,80.1909,279.9194,0,U,66122,999,4049,.12625792E-2,.37253E-3,0
STARLINK-35628,2025-237K,2026-07-04T19:26:58.039872,15.34432405,.00022396,53.1574,214.7998,86.5314,273.5944,0,U,66123,999,4055,.14847639E-2,.50178E-3,0
STARLINK-35645,2025-237L,2026-07-04T19:20:52.950624,15.34451028,.00006423,53.1585,214.7731,254.4185,105.6747,0,U,66124,999,4055,.15153951E-2,.51258E-3,0
STARLINK-35649,2025-237M,2026-07-04T19:14:50.614080,15.34420555,.00018225,53.1591,214.7454,90.6128,269.5084,0,U,66125,999,4055,.1032943E-2,.34708E-3,0
STARLINK-35658,2025-237N,2026-07-04T18:56:39.967872,15.34436209,.00014734,53.1577,214.6697,89.2862,270.8310,0,U,66126,999,4054,.15754696E-2,.53294E-3,0
STARLINK-35629,2025-237P,2026-07-04T18:43:21.747648,15.30216430,.00017248,53.1564,216.0284,94.3138,265.8060,0,U,66127,999,4053,.16267543E-2,.48158E-3,0
STARLINK-35612,2025-237Q,2026-07-04T12:14:57.889536,15.30230926,.00007467,53.1576,217.1941,67.0586,293.0493,0,U,66128,999,4049,.16337564E-2,.4839E-3,0
STARLINK-35632,2025-237R,2026-07-04T08:57:44.507520,15.30213644,.00008757,53.1575,217.7596,97.8645,262.2455,0,U,66129,999,4047,.85922577E-3,.25186E-3,0
STARLINK-35630,2025-237T,2026-07-04T03:15:40.930560,15.34396789,.00008966,53.1579,217.7035,35.7926,324.3137,0,U,66131,999,4045,.66395324E-3,.2212E-3,0
STARLINK-34412,2025-237U,2026-07-04T19:29:59.279424,15.34442480,.00015707,53.1590,214.8129,91.3653,268.7530,0,U,66132,999,4046,.15857024E-2,.53656E-3,0
STARLINK-35520,2025-237V,2026-07-04T18:59:36.336192,15.34549541,.00029634,53.1587,214.6829,270.1596,89.9067,0,U,66133,999,4055,.16293112E-2,.55347E-3,0
STARLINK-35525,2025-237W,2026-07-04T19:23:55.615776,15.34441942,.00014598,53.1568,214.7871,91.1545,268.9625,0,U,66134,999,4055,.15519395E-2,.52497E-3,0
STARLINK-34852,2025-237X,2026-07-04T12:07:23.005632,15.30216961,.00023225,53.1571,217.1556,70.5750,289.5502,0,U,66135,999,4045,.11850013E-2,.34922E-3,0
STARLINK-35592,2025-237Y,2026-07-04T19:08:47.157792,15.34404137,.00017614,53.1575,214.7192,88.2488,271.8717,0,U,66136,999,4055,.10356422E-2,.34782E-3,0
STARLINK-35576,2025-237Z,2026-07-04T19:05:45.217536,15.34451929,.00012906,53.1582,214.7052,79.1114,281.0034,0,U,66137,999,4055,.2036872E-2,.69194E-3,0
STARLINK-35623,2025-237AA,2026-07-04T18:40:17.608512,15.30234478,.00011105,53.1566,216.0124,98.2908,261.8219,0,U,66138,999,4053,.12022206E-2,.35455E-3,0
STARLINK-35549,2025-237AB,2026-07-04T18:38:37.536576,15.34439484,.00015686,53.1589,215.2978,102.4493,257.6685,0,U,66139,999,4054,.17562495E-2,.59508E-3,0
STARLINK-35625,2025-237AC,2026-07-04T19:11:48.428448,15.34432123,.00006196,53.1595,214.7318,87.9399,272.1674,0,U,66140,999,4055,.11948454E-2,.40252E-3,0
STARLINK-35603,2025-237AD,2026-07-04T19:33:00.739296,15.34434941,.00004555,53.1592,214.8217,85.6788,274.4267,0,U,66141,999,4055,.14286966E-2,.48259E-3,0
TJS-20,2025-238A,2026-07-04T21:33:34.099776,1.00272566,.00046624,5.4317,299.4739,173.3873,195.8190,0,U,66142,999,251,0,.39E-6,0
STARLINK-35318,2025-240A,2026-07-04T20:33:45.204480,15.34417660,.00014915,53.1581,236.7207,82.1556,277.9616,0,U,66146,999,4000,.14740023E-2,.49785E-3,0
STARLINK-33948,2025-240B,2026-07-04T13:30:55.512000,15.34459270,.0001532,53.1587,239.8562,73.2699,286.8471,0,U,66147,999,3993,.22568013E-2,.76802E-3,0
STARLINK-35081,2025-240C,2026-07-04T20:27:42.990624,15.34429795,.00009899,53.1570,236.6831,106.5215,253.5897,0,U,66148,999,3995,.18119869E-2,.61405E-3,0
STARLINK-35601,2025-240D,2026-07-04T22:00:03.000096,15.34343948,.00009653,53.1602,238.1805,116.4788,49.3360,0,U,66149,999,591,.18897222E-2,.63902E-3,0
STARLINK-35605,2025-240E,2026-07-04T03:46:56.750592,15.34415128,.00017125,53.1591,241.5887,91.8754,268.2445,0,U,66150,999,3982,.10017022E-2,.33636E-3,0
STARLINK-35540,2025-240F,2026-07-04T20:12:32.369184,15.34432703,.00016031,53.1569,236.6231,86.8100,273.3086,0,U,66151,999,3995,.1182722E-2,.39838E-3,0
